OBJECT_NAME,OBJECT_ID,EPOCH,MEAN_MOTION,ECCENTRICITY,INCLINATION,RA_OF_ASC_NODE,ARG_OF_PERICENTER,MEAN_ANOMALY,EPHEMERIS_TYPE,CLASSIFICATION_TYPE,NORAD_CAT_ID,ELEMENT_SET_NO,REV_AT_EPOCH,BSTAR,MEAN_MOTION_DOT,MEAN_MOTION_DDOT
BEIDOU-3 IGSO-2 (C39),2019-035A,2026-06-05T15:35:45.206592,1.00270597,.00397961,55.2445,158.9631,216.1606,232.8050,0,U,44337,999,2555,0,-.68E-6,0
GPS BIII-2  (PRN 18),2019-056A,2026-06-02T10:44:11.779584,2.00569922,.006123,55.6403,331.7284,197.3681,346.8768,0,U,44506,999,4977,0,-.81E-6,0
BEIDOU-3 M24 (C46),2019-061A,2026-06-04T08:32:01.071744,1.86229272,.00082925,54.3958,183.1608,359.5616,0.4973,0,U,44542,999,4555,0,.7E-6,0
BEIDOU-3 M23 (C45),2019-061B,2026-06-05T03:50:47.412672,1.86227560,.00055253,54.3945,183.1018,339.5866,111.6566,0,U,44543,999,4557,0,.75E-6,0
BEIDOU-3 IGSO-3 (C40),2019-073A,2026-05-16T19:27:04.075776,1.00246251,.0042953,54.8566,281.2355,189.4588,170.3676,0,U,44709,999,2414,0,-.217E-5,0
BEIDOU-3 M22 (C44),2019-078A,2026-06-05T19:20:44.288160,1.86227665,.00066301,53.9467,300.2280,49.5810,310.4674,0,U,44793,999,4443,0,-.55E-6,0
BEIDOU-3 M21 (C43),2019-078B,2026-06-05T22:42:15.886944,1.86228151,.0004552,53.9198,300.1845,47.7436,312.2860,0,U,44794,999,4444,0,-.55E-6,0
COSMOS 2544 (759),2019-088A,2026-06-05T07:08:53.172960,2.13102169,.00136933,65.5596,74.1271,259.9573,99.9093,0,U,44850,999,5046,0,-.6E-7,0
BEIDOU-3 M19 (C41),2019-090A,2026-06-05T22:10:38.800416,1.86231875,.0018206,56.5489,63.1634,297.4846,245.0613,0,U,44864,999,4402,0,-.38E-6,0
BEIDOU-3 M20 (C42),2019-090B,2026-06-05T18:59:07.473408,1.86231721,.00161337,56.5505,63.2026,310.9679,232.0002,0,U,44865,999,4400,0,-.38E-6,0
BEIDOU-3 G2 (C60),2020-017A,2026-06-06T05:14:38.853600,1.00274320,.000264,2.8419,47.1790,24.8298,341.3287,0,U,45344,999,2315,0,-.128E-5,0
COSMOS 2545 (760),2020-018A,2026-06-05T11:49:45.715872,2.13102783,.0007849,64.3625,312.8297,231.7893,128.1339,0,U,45358,999,4841,0,-.33E-6,0
GPS BIII-3  (PRN 23),2020-041A,2026-06-05T12:26:40.516800,2.00559161,.00634441,56.6620,29.3967,204.6335,336.1006,0,U,45854,999,4380,0,-.7E-6,0
COSMOS 2547 (705K),2020-075A,2026-06-05T05:06:49.888224,2.13100365,.0009155,64.5987,192.8757,239.4130,120.5675,0,U,46805,999,4365,0,.69E-6,0
GPS BIII-4  (PRN 14),2020-078A,2026-06-05T19:17:06.647424,2.00564981,.00730482,53.9813,211.2406,206.8740,155.6187,0,U,46826,999,4128,0,.41E-6,0
GPS BIII-5  (PRN 11),2021-054A,2026-06-05T23:53:17.724192,2.00569938,.0025022,55.1802,332.9100,228.5969,98.5336,0,U,48859,999,3652,0,-.65E-6,0
QZS-1R (QZSS/PRN 196),2021-096A,2026-06-05T15:49:42.295584,1.00260126,.07541763,37.4382,79.7551,271.5566,274.8683,0,U,49336,999,1689,0,-.239E-5,0
GSAT0223 (GALILEO 27),2021-116A,2026-06-05T20:12:21.690144,1.70476196,.0001178,57.1638,341.9819,182.7956,174.1817,0,U,49809,999,2798,0,-.66E-6,0
GSAT0224 (GALILEO 28),2021-116B,2026-06-01T20:23:41.337600,1.70476406,.0000821,57.1667,342.0878,134.5472,44.9862,0,U,49810,999,2794,0,-.79E-6,0
COSMOS 2557 (706K),2022-075A,2026-06-04T21:47:47.138208,2.13102273,.0010157,64.3043,314.9179,276.0496,83.8276,0,U,52984,999,3045,0,-.37E-6,0
COSMOS 2559 (707K),2022-130A,2026-06-06T03:15:13.547808,2.13101704,.0012374,64.2805,314.9582,177.2217,182.7817,0,U,54031,999,2845,0,-.32E-6,0
COSMOS 2564 (761),2022-161A,2026-06-05T00:58:08.311008,2.13102077,.00120261,64.7406,193.1150,224.1220,135.8537,0,U,54377,999,2737,0,.69E-6,0
GPS BIII-6  (PRN 28),2023-009A,2026-06-05T17:46:00.319008,2.00572353,.00061842,55.1216,148.9690,317.6827,223.4166,0,U,55268,999,2501,0,.86E-6,0
COSMOS 2569 (703K),2023-114A,2026-06-05T01:15:55.217088,2.13103796,.00111286,65.2956,73.0297,296.7426,63.1656,0,U,57517,999,2200,0,-.9E-7,0
